NORAD_CAT_ID,OBJECT_NAME,OBJECT_TYPE,EPOCH,MEAN_MOTION,ECCENTRICITY,INCLINATION,RA_OF_ASC_NODE,ARG_OF_PERICENTER,MEAN_ANOMALY,BSTAR,MEAN_MOTION_DOT,MEAN_MOTION_DDOT,TLE_LINE0,TLE_LINE1,TLE_LINE2,SEMIMAJOR_AXIS,PERIOD,APOGEE,PERIGEE,DECAYED
51131.0,STARLINK-3388,PAYLOAD,2024-06-29 04:31:53,15.0883901,0.0001343,53.2153,195.6799,95.0813,265.0333,6.1083e-05,6.84e-06,0.0,0 STARLINK-3388,1 51131U 22005AD  24181.18881717  .00000684  00000-0  61083-4 0  9997,2 51131  53.2153 195.6799 0001343  95.0813 265.0333 15.08839010136473,6917.883,95.438,540.677,538.819,0.0
51131.0,STARLINK-3388,PAYLOAD,2024-06-29 07:42:40,15.0883612,0.0001335,53.2155,195.0845,96.4866,263.6279,2.3084e-05,7.9e-07,0.0,0 STARLINK-3388,1 51131U 22005AD  24181.32129925  .00000079  00000-0  23084-4 0  9996,2 51131  53.2155 195.0845 0001335  96.4866 263.6279 15.08836120135375,6917.892,95.438,540.681,538.834,0.0
51131.0,STARLINK-3388,PAYLOAD,2024-06-30 07:33:27,15.08837698,0.0001291,53.2151,190.6247,94.4343,265.6797,2.7477e-05,1.49e-06,0.0,0 STARLINK-3388,1 51131U 22005AD  24182.31489991  .00000149  00000-0  27477-4 0  9996,2 51131  53.2151 190.6247 0001291  94.4343 265.6797 15.08837698136646,6917.887,95.438,540.646,538.859,0.0
51131.0,STARLINK-3388,PAYLOAD,2024-06-30 17:05:45,15.08839888,0.0001301,53.2151,188.8403,94.1638,265.9502,5.8703e-05,6.46e-06,0.0,0 STARLINK-3388,1 51131U 22005AD  24182.71233791  .00000646  00000-0  58703-4 0  9993,2 51131  53.2151 188.8403 0001301  94.1638 265.9502 15.08839888135587,6917.881,95.438,540.646,538.846,0.0
51131.0,STARLINK-3388,PAYLOAD,2024-07-01 07:24:14,15.08833299,0.0001428,53.2163,186.1659,98.5511,261.5643,7.5042e-05,9.06e-06,0.0,0 STARLINK-3388,1 51131U 22005AD  24183.30850384  .00000906  00000-0  75042-4 0  9996,2 51131  53.2163 186.1659 0001428  98.5511 261.5643 15.08833299135670,6917.901,95.438,540.754,538.778,0.0
51131.0,STARLINK-3388,PAYLOAD,2024-07-01 16:56:33,15.08837065,0.0001441,53.2167,184.3819,98.2257,261.8899,8.288e-05,1.031e-05,0.0,0 STARLINK-3388,1 51131U 22005AD  24183.70594238  .00001031  00000-0  82880-4 0  9991,2 51131  53.2167 184.3819 0001441  98.2257 261.8899 15.08837065136853,6917.889,95.438,540.751,538.757,0.0
51131.0,STARLINK-3388,PAYLOAD,2024-07-02 08:50:24,15.08838284,0.0001441,53.2167,181.4083,98.2732,261.8424,5.9741e-05,6.63e-06,0.0,0 STARLINK-3388,1 51131U 22005AD  24184.36834367  .00000663  00000-0  59741-4 0  9994,2 51131  53.2167 181.4083 0001441  98.2732 261.8424 15.08838284135837,6917.886,95.438,540.748,538.754,0.0
51131.0,STARLINK-3388,PAYLOAD,2024-07-03 03:55:02,15.08839289,0.0001398,53.2167,177.8392,92.3982,267.717,7.1453e-05,8.49e-06,0.0,0 STARLINK-3388,1 51131U 22005AD  24185.16322271  .00000849  00000-0  71453-4 0  9999,2 51131  53.2167 177.8392 0001398  92.3982 267.7170 15.08839289137079,6917.883,95.438,540.715,538.78,0.0
51131.0,STARLINK-3388,PAYLOAD,2024-07-03 16:38:07,15.08842384,0.0001381,53.2164,175.4599,87.8539,272.2612,5.4037e-05,5.72e-06,0.0,0 STARLINK-3388,1 51131U 22005AD  24185.69314095  .00000572  00000-0  54037-4 0  9994,2 51131  53.2164 175.4599 0001381  87.8539 272.2612 15.08842384136035,6917.873,95.437,540.693,538.783,0.0
51131.0,STARLINK-3388,PAYLOAD,2024-07-04 05:21:12,15.08839054,0.000128,53.2156,173.079,94.2885,265.8253,2.726e-05,1.46e-06,0.0,0 STARLINK-3388,1 51131U 22005AD  24186.22306309  .00000146  00000-0  27260-4 0  9998,2 51131  53.2156 173.0790 0001280  94.2885 265.8253 15.08839054137239,6917.883,95.438,540.634,538.863,0.0
51131.0,STARLINK-3388,PAYLOAD,2024-07-04 06:56:35,15.08840069,0.0001306,53.2158,172.7819,93.4063,266.7079,3.5012e-05,2.69e-06,0.0,0 STARLINK-3388,1 51131U 22005AD  24186.28930231  .00000269  00000-0  35012-4 0  9991,2 51131  53.2158 172.7819 0001306  93.4063 266.7079 15.08840069136128,6917.88,95.438,540.649,538.842,0.0
51131.0,STARLINK-3388,PAYLOAD,2024-07-04 22:50:26,15.0884108,0.0001359,53.2161,169.8098,91.4691,268.6457,3.946e-05,3.4e-06,0.0,0 STARLINK-3388,1 51131U 22005AD  24186.95170096  .00000340  00000-0  39460-4 0  9991,2 51131  53.2161 169.8098 0001359  91.4691 268.6457 15.08841080136227,6917.877,95.437,540.682,538.802,0.0
51131.0,STARLINK-3388,PAYLOAD,2024-07-05 05:11:59,15.08839807,0.000136,53.2162,168.62,92.1325,267.9822,2.628e-05,1.3e-06,0.0,0 STARLINK-3388,1 51131U 22005AD  24187.21666195  .00000130  00000-0  26280-4 0  9994,2 51131  53.2162 168.6200 0001360  92.1325 267.9822 15.08839807136260,6917.881,95.438,540.687,538.805,0.0
51131.0,STARLINK-3388,PAYLOAD,2024-07-05 16:19:41,15.08844917,0.0001387,53.2163,166.5387,91.2575,268.8576,6.1951e-05,6.98e-06,0.0,0 STARLINK-3388,1 51131U 22005AD  24187.68033689  .00000698  00000-0  61951-4 0  9994,2 51131  53.2163 166.5387 0001387  91.2575 268.8576 15.08844917137456,6917.865,95.437,540.69,538.771,0.0
51131.0,STARLINK-3388,PAYLOAD,2024-07-05 22:41:13,15.08844807,0.0001597,53.218,165.3487,93.5884,266.5291,-6.0177e-05,-1.246e-05,0.0,0 STARLINK-3388,1 51131U 22005AD  24187.94530085 -.00001246  00000-0 -60177-4 0  9996,2 51131  53.2180 165.3487 0001597  93.5884 266.5291 15.08844807136371,6917.866,95.437,540.835,538.626,0.0
51131.0,STARLINK-3388,PAYLOAD,2024-07-06 05:02:46,15.08825395,0.0001508,53.2181,164.1589,103.4414,256.6747,0.00013988,1.938e-05,0.0,0 STARLINK-3388,1 51131U 22005AD  24188.21026580  .00001938  00000-0  13988-3 0  9990,2 51131  53.2181 164.1589 0001508 103.4414 256.6747 15.08825395137530,6917.925,95.438,540.833,538.747,0.0
51131.0,STARLINK-3388,PAYLOAD,2024-07-06 08:13:33,15.08840108,0.0001593,53.2181,163.5641,99.1716,260.9456,-3.9135e-05,-9.11e-06,0.0,0 STARLINK-3388,1 51131U 22005AD  24188.34274372 -.00000911  00000-0 -39135-4 0  9993,2 51131  53.2181 163.5641 0001593  99.1716 260.9456 15.08840108137558,6917.88,95.438,540.847,538.643,0.0
51131.0,STARLINK-3388,PAYLOAD,2024-07-06 22:32:01,15.08837604,0.0001593,53.2182,160.8877,99.9379,260.1793,1.7874e-06,-2.6e-06,0.0,0 STARLINK-3388,1 51131U 22005AD  24188.93890437 -.00000260  00000-0  17874-5 0  9997,2 51131  53.2182 160.8877 0001593  99.9379 260.1793 15.08837604136522,6917.888,95.438,540.855,538.651,0.0
51131.0,STARLINK-3388,PAYLOAD,2024-07-07 04:53:34,15.08832125,0.0001446,53.2175,159.6993,94.9777,265.1381,-3.0177e-05,-7.68e-06,0.0,0 STARLINK-3388,1 51131U 22005AD  24189.20386938 -.00000768  00000-0 -30177-4 0  9998,2 51131  53.2175 159.6993 0001446  94.9777 265.1381 15.08832125137682,6917.904,95.438,540.77,538.769,0.0
51131.0,STARLINK-3388,PAYLOAD,2024-07-07 08:04:20,15.08833397,0.0001445,53.2174,159.105,94.4797,265.636,-1.948e-05,-5.98e-06,0.0,0 STARLINK-3388,1 51131U 22005AD  24189.33634866 -.00000598  00000-0 -19480-4 0  9993,2 51131  53.2174 159.1050 0001445  94.4797 265.6360 15.08833397136588,6917.901,95.438,540.765,538.766,0.0
51131.0,STARLINK-3388,PAYLOAD,2024-07-08 04:44:20,15.08837763,0.00013,53.2166,155.2392,91.8804,268.2337,9.4986e-05,1.224e-05,0.0,0 STARLINK-3388,1 51131U 22005AD  24190.19746404  .00001224  00000-0  94986-4 0  9990,2 51131  53.2166 155.2392 0001300  91.8804 268.2337 15.08837763137838,6917.887,95.438,540.652,538.853,0.0
51131.0,STARLINK-3388,PAYLOAD,2024-07-08 14:16:39,15.08846249,0.0001258,53.2164,153.4546,89.9941,270.1195,0.00011218,1.498e-05,0.0,0 STARLINK-3388,1 51131U 22005AD  24190.59489778  .00001498  00000-0  11218-3 0  9991,2 51131  53.2164 153.4546 0001258  89.9941 270.1195 15.08846249136774,6917.861,95.437,540.597,538.856,0.0
51131.0,STARLINK-3388,PAYLOAD,2024-07-08 22:13:35,15.08834508,0.0001758,53.2181,151.967,89.0772,271.0421,6.249e-05,7.06e-06,0.0,0 STARLINK-3388,1 51131U 22005AD  24190.92610887  .00000706  00000-0  62490-4 0  9995,2 51131  53.2181 151.9670 0001758  89.0772 271.0421 15.08834508136825,6917.897,95.438,540.978,538.546,0.0
51131.0,STARLINK-3388,PAYLOAD,2024-07-09 04:35:08,15.0883069,0.0001279,53.2164,150.7797,98.603,261.5107,4.5424e-05,4.35e-06,0.0,0 STARLINK-3388,1 51131U 22005AD  24191.19107199  .00000435  00000-0  45424-4 0  9999,2 51131  53.2164 150.7797 0001279  98.6030 261.5107 15.08830690137985,6917.909,95.438,540.659,538.889,0.0
51131.0,STARLINK-3388,PAYLOAD,2024-07-09 14:07:26,15.08840119,0.000137,53.2175,148.996,97.6572,262.4575,6.8871e-05,8.08e-06,0.0,0 STARLINK-3388,1 51131U 22005AD  24191.58850668  .00000808  00000-0  68871-4 0  9993,2 51131  53.2175 148.9960 0001370  97.6572 262.4575 15.08840119136929,6917.88,95.438,540.693,538.797,0.0
51131.0,STARLINK-3388,PAYLOAD,2024-07-10 04:25:56,15.08834142,0.0001653,53.2168,146.3152,78.4253,281.6924,-7.866e-05,-1.54e-05,0.0,0 STARLINK-3388,1 51131U 22005AD  24192.18467883 -.00001540  00000-0 -78660-4 0  9996,2 51131  53.2168 146.3152 0001653  78.4253 281.6924 15.08834142138138,6917.898,95.438,540.907,538.62,0.0
51131.0,STARLINK-3388,PAYLOAD,2024-07-10 13:58:14,15.08843966,0.0001508,53.2164,144.5324,83.2424,276.874,-2.4988e-06,-3.28e-06,0.0,0 STARLINK-3388,1 51131U 22005AD  24192.58210995 -.00000328  00000-0 -24988-5 0  9998,2 51131  53.2164 144.5324 0001508  83.2424 276.8740 15.08843966137076,6917.868,95.437,540.776,538.69,0.0
51131.0,STARLINK-3388,PAYLOAD,2024-07-10 20:19:47,15.0883373,0.0001466,53.2172,143.3474,96.5578,263.5581,9.635e-05,1.246e-05,0.0,0 STARLINK-3388,1 51131U 22005AD  24192.84707338  .00001246  00000-0  96350-4 0  9998,2 51131  53.2172 143.3474 0001466  96.5578 263.5581 15.08833730138231,6917.9,95.438,540.779,538.75,0.0
51131.0,STARLINK-3388,PAYLOAD,2024-07-11 05:52:06,15.08835306,0.0001434,53.2172,141.5614,94.9262,265.1894,6.5538e-05,7.55e-06,0.0,0 STARLINK-3388,1 51131U 22005AD  24193.24451595  .00000755  00000-0  65538-4 0  9992,2 51131  53.2172 141.5614 0001434  94.9262 265.1894 15.08835306137172,6917.895,95.438,540.752,538.768,0.0
51131.0,STARLINK-3388,PAYLOAD,2024-07-12 02:32:06,15.08840416,0.000143,53.2168,137.6956,86.9475,273.1681,0.00013368,1.84e-05,0.0,0 STARLINK-3388,1 51131U 22005AD  24194.10563055  .00001840  00000-0  13368-3 0  9992,2 51131  53.2168 137.6956 0001430  86.9475 273.1681 15.08840416138425,6917.879,95.438,540.733,538.755,0.0
